{
  "type": "FeatureCollection",
  "features": [
    {
      "type": "Feature",
      "properties": {
        "norad_id": 29268,
        "name": "ARIRANG-2 (KOMPSAT-2)",
        "group": "resource",
        "lat": -16.011951803816387,
        "lon": -16.411076904857264,
        "alt_km": 691.7687138861411,
        "timestamp": "2025-12-02T21:34:00.929642+00:00",
        "meta_object_name": "ARIRANG-2 (KOMPSAT-2)",
        "meta_object_id": "2006-031A",
        "meta_epoch": "2025-12-02T12:51:35.609184",
        "meta_mean_motion": 14.64478877,
        "meta_eccentricity": 0.0014065,
        "meta_inclination": 97.8265,
        "meta_ra_of_asc_node": 165.5061,
        "meta_arg_of_pericenter": 342.8469,
        "meta_mean_anomaly": 101.7525,
        "meta_ephemeris_type": 0,
        "meta_classification_type": "U",
        "meta_norad_cat_id": 29268,
        "meta_element_set_no": 999,
        "meta_rev_at_epoch": 3269,
        "meta_bstar": 0.00011596,
        "meta_mean_motion_dot": 5.7e-06,
        "meta_mean_motion_ddot": 0,
        "tle_line1": "1 29268U 06031A   25336.53582881  .00000570  00000+0  11596-3 0  9992",
        "tle_line2": "2 29268  97.8265 165.5061 0014065 342.8469 101.7525 14.64478877 32699"
      },
      "geometry": {
        "type": "Point",
        "coordinates": [
          -16.411076904857264,
          -16.011951803816387
        ]
      }
    },
    {
      "type": "Feature",
      "properties": {
        "norad_id": 29709,
        "name": "LAPAN-TUBSAT",
        "group": "resource",
        "lat": 75.9791797392822,
        "lon": -178.24908717224636,
        "alt_km": 594.865816023198,
        "timestamp": "2025-12-02T21:34:00.929659+00:00",
        "meta_object_name": "LAPAN-TUBSAT",
        "meta_object_id": "2007-001A",
        "meta_epoch": "2025-12-02T11:24:50.385888",
        "meta_mean_motion": 14.85645377,
        "meta_eccentricity": 0.0013587,
        "meta_inclination": 98.1251,
        "meta_ra_of_asc_node": 326.4215,
        "meta_arg_of_pericenter": 104.4516,
        "meta_mean_anomaly": 255.8207,
        "meta_ephemeris_type": 0,
        "meta_classification_type": "U",
        "meta_norad_cat_id": 29709,
        "meta_element_set_no": 999,
        "meta_rev_at_epoch": 2194,
        "meta_bstar": 0.00011705,
        "meta_mean_motion_dot": 9.58e-06,
        "meta_mean_motion_ddot": 0,
        "tle_line1": "1 29709U 07001A   25336.47558317  .00000958  00000+0  11705-3 0  9992",
        "tle_line2": "2 29709  98.1251 326.4215 0013587 104.4516 255.8207 14.85645377 21948"
      },
      "geometry": {
        "type": "Point",
        "coordinates": [
          -178.24908717224636,
          75.9791797392822
        ]
      }
    },
    {
      "type": "Feature",
      "properties": {
        "norad_id": 31113,
        "name": "HAIYANG-1B",
        "group": "resource",
        "lat": 57.238333968468865,
        "lon": 154.74540945891323,
        "alt_km": 777.2371108661036,
        "timestamp": "2025-12-02T21:34:00.929682+00:00",
        "meta_object_name": "HAIYANG-1B",
        "meta_object_id": "2007-010A",
        "meta_epoch": "2025-12-02T10:55:56.515008",
        "meta_mean_motion": 14.30959398,
        "meta_eccentricity": 0.0014611,
        "meta_inclination": 98.3307,
        "meta_ra_of_asc_node": 321.1591,
        "meta_arg_of_pericenter": 66.4075,
        "meta_mean_anomaly": 293.8641,
        "meta_ephemeris_type": 0,
        "meta_classification_type": "U",
        "meta_norad_cat_id": 31113,
        "meta_element_set_no": 999,
        "meta_rev_at_epoch": 97249,
        "meta_bstar": 8.2357e-05,
        "meta_mean_motion_dot": 1.75e-06,
        "meta_mean_motion_ddot": 0,
        "tle_line1": "1 31113U 07010A   25336.45551522  .00000175  00000+0  82357-4 0  9996",
        "tle_line2": "2 31113  98.3307 321.1591 0014611  66.4075 293.8641 14.30959398972499"
      },
      "geometry": {
        "type": "Point",
        "coordinates": [
          154.74540945891323,
          57.238333968468865
        ]
      }
    },
    {
      "type": "Feature",
      "properties": {
        "norad_id": 31598,
        "name": "COSMO-SKYMED 1",
        "group": "resource",
        "lat": 61.132584919137166,
        "lon": 147.67482137677794,
        "alt_km": 573.4428509498894,
        "timestamp": "2025-12-02T21:34:00.929695+00:00",
        "meta_object_name": "COSMO-SKYMED 1",
        "meta_object_id": "2007-023A",
        "meta_epoch": "2025-12-02T11:39:22.465152",
        "meta_mean_motion": 14.9564579,
        "meta_eccentricity": 0.0001498,
        "meta_inclination": 97.8845,
        "meta_ra_of_asc_node": 161.8183,
        "meta_arg_of_pericenter": 83.2259,
        "meta_mean_anomaly": 276.9132,
        "meta_ephemeris_type": 0,
        "meta_classification_type": "U",
        "meta_norad_cat_id": 31598,
        "meta_element_set_no": 999,
        "meta_rev_at_epoch": 37,
        "meta_bstar": 0.00043902,
        "meta_mean_motion_dot": 4.822e-05,
        "meta_mean_motion_ddot": 0,
        "tle_line1": "1 31598U 07023A   25336.48567668  .00004822  00000+0  43902-3 0  9993",
        "tle_line2": "2 31598  97.8845 161.8183 0001498  83.2259 276.9132 14.95645790   378"
      },
      "geometry": {
        "type": "Point",
        "coordinates": [
          147.67482137677794,
          61.132584919137166
        ]
      }
    },
    {
      "type": "Feature",
      "properties": {
        "norad_id": 31698,
        "name": "TERRASAR-X",
        "group": "resource",
        "lat": -30.752306648036004,
        "lon": -13.114021871769435,
        "alt_km": 515.0447462534485,
        "timestamp": "2025-12-02T21:34:00.929706+00:00",
        "meta_object_name": "TERRASAR-X",
        "meta_object_id": "2007-026A",
        "meta_epoch": "2025-12-01T15:40:02.654400",
        "meta_mean_motion": 15.19150274,
        "meta_eccentricity": 0.00019062,
        "meta_inclination": 97.4444,
        "meta_ra_of_asc_node": 341.1963,
        "meta_arg_of_pericenter": 89.1201,
        "meta_mean_anomaly": 271.0252,
        "meta_ephemeris_type": 0,
        "meta_classification_type": "U",
        "meta_norad_cat_id": 31698,
        "meta_element_set_no": 999,
        "meta_rev_at_epoch": 2323,
        "meta_bstar": 7.6522775e-05,
        "meta_mean_motion_dot": 1.54e-05,
        "meta_mean_motion_ddot": 0,
        "tle_line1": "1 31698U 07026A   25335.65280850  .00001540  00000+0  76523-4 0  9990",
        "tle_line2": "2 31698  97.4444 341.1963 0001906  89.1201 271.0252 15.19150274 23239"
      },
      "geometry": {
        "type": "Point",
        "coordinates": [
          -13.114021871769435,
          -30.752306648036004
        ]
      }
    },
    {
      "type": "Feature",
      "properties": {
        "norad_id": 32060,
        "name": "WORLDVIEW-1 (WV-1)",
        "group": "resource",
        "lat": 40.4744475744729,
        "lon": -79.12736642897202,
        "alt_km": 489.0638764338746,
        "timestamp": "2025-12-02T21:34:00.929716+00:00",
        "meta_object_name": "WORLDVIEW-1 (WV-1)",
        "meta_object_id": "2007-041A",
        "meta_epoch": "2025-12-02T08:21:22.025376",
        "meta_mean_motion": 15.24416549,
        "meta_eccentricity": 7.23e-05,
        "meta_inclination": 97.3833,
        "meta_ra_of_asc_node": 93.9775,
        "meta_arg_of_pericenter": 92.4117,
        "meta_mean_anomaly": 267.7203,
        "meta_ephemeris_type": 0,
        "meta_classification_type": "U",
        "meta_norad_cat_id": 32060,
        "meta_element_set_no": 999,
        "meta_rev_at_epoch": 1289,
        "meta_bstar": 0.00046516,
        "meta_mean_motion_dot": 0.00011344,
        "meta_mean_motion_ddot": 0,
        "tle_line1": "1 32060U 07041A   25336.34817159  .00011344  00000+0  46516-3 0  9997",
        "tle_line2": "2 32060  97.3833  93.9775 0000723  92.4117 267.7203 15.24416549 12890"
      },
      "geometry": {
        "type": "Point",
        "coordinates": [
          -79.12736642897202,
          40.4744475744729
        ]
      }
    },
    {
      "type": "Feature",
      "properties": {
        "norad_id": 32289,
        "name": "YAOGAN-3",
        "group": "resource",
        "lat": 59.120850390757724,
        "lon": -163.06919196633453,
        "alt_km": 592.1519780788021,
        "timestamp": "2025-12-02T21:34:00.929727+00:00",
        "meta_object_name": "YAOGAN-3",
        "meta_object_id": "2007-055A",
        "meta_epoch": "2025-12-02T12:58:15.037248",
        "meta_mean_motion": 14.89777009,
        "meta_eccentricity": 0.0001519,
        "meta_inclination": 97.8378,
        "meta_ra_of_asc_node": 3.2581,
        "meta_arg_of_pericenter": 77.4412,
        "meta_mean_anomaly": 282.6975,
        "meta_ephemeris_type": 0,
        "meta_classification_type": "U",
        "meta_norad_cat_id": 32289,
        "meta_element_set_no": 999,
        "meta_rev_at_epoch": 97657,
        "meta_bstar": 0.00033933,
        "meta_mean_motion_dot": 3.199e-05,
        "meta_mean_motion_ddot": 0,
        "tle_line1": "1 32289U 07055A   25336.54045182  .00003199  00000+0  33933-3 0  9994",
        "tle_line2": "2 32289  97.8378   3.2581 0001519  77.4412 282.6975 14.89777009976573"
      },
      "geometry": {
        "type": "Point",
        "coordinates": [
          -163.06919196633453,
          59.120850390757724
        ]
      }
    }
  ]
}